FENGYUN 1C DEB          
1 31033U 99025BEB 26094.88610580  .00000568  00000+0  21886-3 0  9998
2 31033  98.4543  74.4652 0153470 137.5817 254.2100 14.27634547989604
FENGYUN 1C DEB          
1 31036U 99025BEE 26094.54886897  .00001082  00000+0  26521-3 0  9993
2 31036  98.9185 212.4087 0136871 285.9089 132.1435 14.49319126589412
FENGYUN 1C DEB          
1 31038U 99025BEG 26094.68082851  .00002590  00000+0  70604-3 0  9994
2 31038  99.0028 190.7010 0082980 251.7984 107.4160 14.46328160998679
FENGYUN 1C DEB          
1 31040U 99025BEJ 26094.25452580  .00000768  00000+0  39016-3 0  9997
2 31040  98.6694  86.3427 0061506 230.9938 144.2013 14.17857473983017
FENGYUN 1C DEB          
1 31041U 99025BEK 26092.03745374  .00004265  00000+0  19972-2 0  9992
2 31041  99.1902 129.7048 0084279  10.5159 349.7753 14.18911694970539
FENGYUN 1C DEB          
1 31043U 99025BEM 26095.01614161  .00000809  00000+0  49114-3 0  9996
2 31043  98.7574 114.5991 0042099  44.8230 344.2363 14.08635526975824
FENGYUN 1C DEB          
1 31046U 99025BEQ 26094.85701400  .00036552  00000+0  58296-2 0  9997
2 31046  98.9657 230.0700 0042036 119.4577  33.1351 14.71200983983013
FENGYUN 1C DEB          
1 31047U 99025BER 26092.96178138  .00000938  00000+0  51448-3 0  9996
2 31047  98.7055  92.4764 0024716 220.9640 171.7731 14.14048731979315
FENGYUN 1C DEB          
1 31049U 99025BET 26072.29735117  .00000418  00000+0  28632-3 0  9990
2 31049  98.8037  85.2208 0050278 235.6323 124.0083 14.04368778623866
FENGYUN 1C DEB          
1 31051U 99025BEV 26092.29807114  .00000803  00000+0  53647-3 0  9994
2 31051  98.8030 124.3503 0052661 186.4880 173.5611 14.03130924653693
FENGYUN 1C DEB          
1 31053U 99025BEX 26095.28853094  .00004946  00000+0  35957-2 0  9991
2 31053  98.8013 214.3587 0307432 150.9554 210.9097 13.76486789950383
FENGYUN 1C DEB          
1 31054U 99025BEY 26094.51621248  .00000309  00000+0  19090-3 0  9991
2 31054  98.6869 109.0921 0010274 156.0500 356.4142 14.12246993983550
FENGYUN 1C DEB          
1 31055U 99025BEZ 26095.03172435  .00000663  00000+0  39556-3 0  9991
2 31055  98.7443 128.2612 0023634 312.9179  67.1639 14.10525226977196
FENGYUN 1C DEB          
1 31056U 99025BFA 26095.21831785  .00000808  00000+0  44212-3 0  9998
2 31056  98.6820  79.5173 0026218  18.6087 359.8813 14.14484025984226
FENGYUN 1C DEB          
1 31057U 99025BFB 26088.90034546  .00008646  00000+0  96062-3 0  9995
2 31057  99.2393 149.5687 0133256 277.1673  81.4401 14.81204056635380
FENGYUN 1C DEB          
1 31058U 99025BFC 26093.65874501  .00015676  00000+0  19861-2 0  9999
2 31058  99.5802  68.7875 0090933 121.4504 239.5631 14.78961205 11468
