[{"OBJECT_NAME":"FENGYUN 1C DEB","OBJECT_ID":"1999-025BEB","EPOCH":"2026-04-04T21:15:59.541120","MEAN_MOTION":14.27634547,"ECCENTRICITY":0.01534701,"INCLINATION":98.4543,"RA_OF_ASC_NODE":74.4652,"ARG_OF_PERICENTER":137.5817,"MEAN_ANOMALY":254.21,"EPHEMERIS_TYPE":0,"CLASSIFICATION_TYPE":"U","NORAD_CAT_ID":31033,"ELEMENT_SET_NO":999,"REV_AT_EPOCH":98960,"BSTAR":0.00021885744,"MEAN_MOTION_DOT":5.68e-6,"MEAN_MOTION_DDOT":0},{"OBJECT_NAME":"FENGYUN 1C DEB","OBJECT_ID":"1999-025BEE","EPOCH":"2026-04-04T13:10:22.279008","MEAN_MOTION":14.49319126,"ECCENTRICITY":0.01368716,"INCLINATION":98.9185,"RA_OF_ASC_NODE":212.4087,"ARG_OF_PERICENTER":285.9089,"MEAN_ANOMALY":132.1435,"EPHEMERIS_TYPE":0,"CLASSIFICATION_TYPE":"U","NORAD_CAT_ID":31036,"ELEMENT_SET_NO":999,"REV_AT_EPOCH":58941,"BSTAR":0.00026520568,"MEAN_MOTION_DOT":1.082e-5,"MEAN_MOTION_DDOT":0},{"OBJECT_NAME":"FENGYUN 1C DEB","OBJECT_ID":"1999-025BEG","EPOCH":"2026-04-04T16:20:23.583264","MEAN_MOTION":14.4632816,"ECCENTRICITY":0.00829803,"INCLINATION":99.0028,"RA_OF_ASC_NODE":190.701,"ARG_OF_PERICENTER":251.7984,"MEAN_ANOMALY":107.416,"EPHEMERIS_TYPE":0,"CLASSIFICATION_TYPE":"U","NORAD_CAT_ID":31038,"ELEMENT_SET_NO":999,"REV_AT_EPOCH":99867,"BSTAR":0.0007060363,"MEAN_MOTION_DOT":2.59e-5,"MEAN_MOTION_DDOT":0},{"OBJECT_NAME":"FENGYUN 1C DEB","OBJECT_ID":"1999-025BEJ","EPOCH":"2026-04-04T06:06:31.029120","MEAN_MOTION":14.17857473,"ECCENTRICITY":0.00615068,"INCLINATION":98.6694,"RA_OF_ASC_NODE":86.3427,"ARG_OF_PERICENTER":230.9938,"MEAN_ANOMALY":144.2013,"EPHEMERIS_TYPE":0,"CLASSIFICATION_TYPE":"U","NORAD_CAT_ID":31040,"ELEMENT_SET_NO":999,"REV_AT_EPOCH":98301,"BSTAR":0.00039015934,"MEAN_MOTION_DOT":7.68e-6,"MEAN_MOTION_DDOT":0},{"OBJECT_NAME":"FENGYUN 1C DEB","OBJECT_ID":"1999-025BEK","EPOCH":"2026-04-02T00:53:56.003136","MEAN_MOTION":14.18911694,"ECCENTRICITY":0.00842791,"INCLINATION":99.1902,"RA_OF_ASC_NODE":129.7048,"ARG_OF_PERICENTER":10.5159,"MEAN_ANOMALY":349.7753,"EPHEMERIS_TYPE":0,"CLASSIFICATION_TYPE":"U","NORAD_CAT_ID":31041,"ELEMENT_SET_NO":999,"REV_AT_EPOCH":97053,"BSTAR":0.0019971539,"MEAN_MOTION_DOT":4.265e-5,"MEAN_MOTION_DDOT":0},{"OBJECT_NAME":"FENGYUN 1C DEB","OBJECT_ID":"1999-025BEM","EPOCH":"2026-04-05T00:23:14.635104","MEAN_MOTION":14.08635526,"ECCENTRICITY":0.00420992,"INCLINATION":98.7574,"RA_OF_ASC_NODE":114.5991,"ARG_OF_PERICENTER":44.823,"MEAN_ANOMALY":344.2363,"EPHEMERIS_TYPE":0,"CLASSIFICATION_TYPE":"U","NORAD_CAT_ID":31043,"ELEMENT_SET_NO":999,"REV_AT_EPOCH":97582,"BSTAR":0.00049114022,"MEAN_MOTION_DOT":8.09e-6,"MEAN_MOTION_DDOT":0},{"OBJECT_NAME":"FENGYUN 1C DEB","OBJECT_ID":"1999-025BEQ","EPOCH":"2026-04-04T20:34:06.009600","MEAN_MOTION":14.71200983,"ECCENTRICITY":0.00420363,"INCLINATION":98.9657,"RA_OF_ASC_NODE":230.07,"ARG_OF_PERICENTER":119.4577,"MEAN_ANOMALY":33.1351,"EPHEMERIS_TYPE":0,"CLASSIFICATION_TYPE":"U","NORAD_CAT_ID":31046,"ELEMENT_SET_NO":999,"REV_AT_EPOCH":98301,"BSTAR":0.0058295959,"MEAN_MOTION_DOT":0.00036552,"MEAN_MOTION_DDOT":0},{"OBJECT_NAME":"FENGYUN 1C DEB","OBJECT_ID":"1999-025BER","EPOCH":"2026-04-02T23:04:57.911232","MEAN_MOTION":14.14048731,"ECCENTRICITY":0.00247169,"INCLINATION":98.7055,"RA_OF_ASC_NODE":92.4764,"ARG_OF_PERICENTER":220.964,"MEAN_ANOMALY":171.7731,"EPHEMERIS_TYPE":0,"CLASSIFICATION_TYPE":"U","NORAD_CAT_ID":31047,"ELEMENT_SET_NO":999,"REV_AT_EPOCH":97931,"BSTAR":0.00051448056,"MEAN_MOTION_DOT":9.38e-6,"MEAN_MOTION_DDOT":0},{"OBJECT_NAME":"FENGYUN 1C DEB","OBJECT_ID":"1999-025BET","EPOCH":"2026-03-13T07:08:11.141088","MEAN_MOTION":14.04368778,"ECCENTRICITY":0.00502783,"INCLINATION":98.8037,"RA_OF_ASC_NODE":85.2208,"ARG_OF_PERICENTER":235.6323,"MEAN_ANOMALY":124.0083,"EPHEMERIS_TYPE":0,"CLASSIFICATION_TYPE":"U","NORAD_CAT_ID":31049,"ELEMENT_SET_NO":999,"REV_AT_EPOCH":62386,"BSTAR":0.00028632252,"MEAN_MOTION_DOT":4.18e-6,"MEAN_MOTION_DDOT":0},{"OBJECT_NAME":"FENGYUN 1C DEB","OBJECT_ID":"1999-025BEV","EPOCH":"2026-04-02T07:09:13.346496","MEAN_MOTION":14.03130924,"ECCENTRICITY":0.00526618,"INCLINATION":98.803,"RA_OF_ASC_NODE":124.3503,"ARG_OF_PERICENTER":186.488,"MEAN_ANOMALY":173.5611,"EPHEMERIS_TYPE":0,"CLASSIFICATION_TYPE":"U","NORAD_CAT_ID":31051,"ELEMENT_SET_NO":999,"REV_AT_EPOCH":65369,"BSTAR":0.00053647268,"MEAN_MOTION_DOT":8.03e-6,"MEAN_MOTION_DDOT":0},{"OBJECT_NAME":"FENGYUN 1C DEB","OBJECT_ID":"1999-025BEX","EPOCH":"2026-04-05T06:55:29.073216","MEAN_MOTION":13.76486789,"ECCENTRICITY":0.03074321,"INCLINATION":98.8013,"RA_OF_ASC_NODE":214.3587,"ARG_OF_PERICENTER":150.9554,"MEAN_ANOMALY":210.9097,"EPHEMERIS_TYPE":0,"CLASSIFICATION_TYPE":"U","NORAD_CAT_ID":31053,"ELEMENT_SET_NO":999,"REV_AT_EPOCH":95038,"BSTAR":0.0035957155,"MEAN_MOTION_DOT":4.946e-5,"MEAN_MOTION_DDOT":0},{"OBJECT_NAME":"FENGYUN 1C DEB","OBJECT_ID":"1999-025BEY","EPOCH":"2026-04-04T12:23:20.758272","MEAN_MOTION":14.12246993,"ECCENTRICITY":0.00102743,"INCLINATION":98.6869,"RA_OF_ASC_NODE":109.0921,"ARG_OF_PERICENTER":156.05,"MEAN_ANOMALY":356.4142,"EPHEMERIS_TYPE":0,"CLASSIFICATION_TYPE":"U","NORAD_CAT_ID":31054,"ELEMENT_SET_NO":999,"REV_AT_EPOCH":98355,"BSTAR":0.00019089897,"MEAN_MOTION_DOT":3.09e-6,"MEAN_MOTION_DDOT":0},{"OBJECT_NAME":"FENGYUN 1C DEB","OBJECT_ID":"1999-025BEZ","EPOCH":"2026-04-05T00:45:40.983840","MEAN_MOTION":14.10525226,"ECCENTRICITY":0.00236349,"INCLINATION":98.7443,"RA_OF_ASC_NODE":128.2612,"ARG_OF_PERICENTER":312.9179,"MEAN_ANOMALY":67.1639,"EPHEMERIS_TYPE":0,"CLASSIFICATION_TYPE":"U","NORAD_CAT_ID":31055,"ELEMENT_SET_NO":999,"REV_AT_EPOCH":97719,"BSTAR":0.00039555668,"MEAN_MOTION_DOT":6.63e-6,"MEAN_MOTION_DDOT":0},{"OBJECT_NAME":"FENGYUN 1C DEB","OBJECT_ID":"1999-025BFA","EPOCH":"2026-04-05T05:14:22.662240","MEAN_MOTION":14.14484025,"ECCENTRICITY":0.00262182,"INCLINATION":98.682,"RA_OF_ASC_NODE":79.5173,"ARG_OF_PERICENTER":18.6087,"MEAN_ANOMALY":359.8813,"EPHEMERIS_TYPE":0,"CLASSIFICATION_TYPE":"U","NORAD_CAT_ID":31056,"ELEMENT_SET_NO":999,"REV_AT_EPOCH":98422,"BSTAR":0.00044212473,"MEAN_MOTION_DOT":8.08e-6,"MEAN_MOTION_DDOT":0},{"OBJECT_NAME":"FENGYUN 1C DEB","OBJECT_ID":"1999-025BFB","EPOCH":"2026-03-29T21:36:29.847744","MEAN_MOTION":14.81204056,"ECCENTRICITY":0.01332563,"INCLINATION":99.2393,"RA_OF_ASC_NODE":149.5687,"ARG_OF_PERICENTER":277.1673,"MEAN_ANOMALY":81.4401,"EPHEMERIS_TYPE":0,"CLASSIFICATION_TYPE":"U","NORAD_CAT_ID":31057,"ELEMENT_SET_NO":999,"REV_AT_EPOCH":63538,"BSTAR":0.00096062353,"MEAN_MOTION_DOT":8.646e-5,"MEAN_MOTION_DDOT":0},{"OBJECT_NAME":"FENGYUN 1C DEB","OBJECT_ID":"1999-025BFC","EPOCH":"2026-04-03T15:48:35.568864","MEAN_MOTION":14.78961205,"ECCENTRICITY":0.00909337,"INCLINATION":99.5802,"RA_OF_ASC_NODE":68.7875,"ARG_OF_PERICENTER":121.4504,"MEAN_ANOMALY":239.5631,"EPHEMERIS_TYPE":0,"CLASSIFICATION_TYPE":"U","NORAD_CAT_ID":31058,"ELEMENT_SET_NO":999,"REV_AT_EPOCH":1146,"BSTAR":0.001986143,"MEAN_MOTION_DOT":0.00015676,"MEAN_MOTION_DDOT":0}]
